GAOFEN-5 01             
1 43461U 18043A   26117.91532848  .00000413  00000+0  95029-4 0  9997
2 43461  98.4537  88.4580 0000954 190.1867 169.9313 14.60569388424359
GAOFEN-6                
1 43484U 18048A   26117.99311757  .00000324  00000+0  53426-4 0  9995
2 43484  97.7792 182.5080 0011641 344.8945  15.1916 14.76569130425983
GAOFEN-11 01            
1 43585U 18063A   26117.96437949  .00010224  00000+0  16065-3 0  9990
2 43585  97.1333 185.0312 0005068 142.0727 218.0885 15.53813838432540
ICESAT-2                
1 43613U 18070A   26117.67061102  .00003394  00000+0  12303-3 0  9993
2 43613  92.0019 277.3520 0002088  58.9707 301.1747 15.28320711424744
HYSIS                   
1 43719U 18096A   26117.93244699  .00000933  00000+0  13441-3 0  9991
2 43719  97.9866 185.0668 0000782  84.6406 275.4894 14.78670212399996
KAZSTSAT                
1 43783U 18099AB  26117.85961555  .00000857  00000+0  73798-4 0  9990
2 43783  97.4364 152.0650 0004100 191.3742 168.7390 14.99778428403764
SAUDISAT 5A             
1 43831U 18102A   26117.92878817  .00006345  00000+0  23812-3 0  9994
2 43831  97.3108 180.4879 0008359 319.4883  40.5734 15.27528605408003
SAUDISAT 5B             
1 43833U 18102C   26117.95654045  .00005642  00000+0  21022-3 0  9994
2 43833  97.3210 183.4940 0009149 321.4011  38.6573 15.27812559408121
GAOFEN-10R              
1 44622U 19066A   26117.95474764  .00001393  00000+0  17844-3 0  9995
2 44622  98.0469  71.1828 0004482 312.2873  47.7960 14.82945927354935
CARTOSAT-3              
1 44804U 19081A   26117.96916918  .00003815  00000+0  18375-3 0  9998
2 44804  97.4346 180.6327 0011099 332.7293  27.3358 15.19299269355847
GAOFEN-12 01            
1 44819U 19082A   26117.92875244  .00000448  00000+0  65259-4 0  9990
2 44819  97.8123 125.6340 0001510 126.9504 233.1847 14.80416457346655
CSG-1                   
1 44873U 19092A   26117.95854436  .00000532  00000+0  73440-4 0  9999
2 44873  97.8887 302.2876 0001289  93.7139 266.4222 14.82156157344033
NEMO-HD                 
1 46277U 20061F   26117.90469763  .00011908  00000+0  26689-3 0  9998
2 46277  97.1961 180.3940 0001541 133.4244 226.7133 15.43570900314228
SENTINEL-6A             
1 46984U 20086A   26117.80459519 -.00000072  00000+0 -45973-4 0  9997
2 46984  66.0413 239.6958 0007780 270.3518  89.6606 12.80930918253874
GAOFEN-12 02            
1 48079U 21026A   26117.93448733  .00000470  00000+0  68645-4 0  9990
2 48079  97.9926 116.3235 0005870  49.3716 310.8005 14.80254843274327
PLEIADES NEO 3          
1 48268U 21034A   26117.94146278 -.00000072  00000+0 -25682-5 0  9994
2 48268  97.8929 193.4292 0001342  95.1472 264.9894 14.81668372270212
PLEIADES NEO 4          
1 49070U 21073E   26117.84015214  .00000129  00000+0  23046-4 0  9995
2 49070  97.8929 193.3256 0001339  94.0334 266.1032 14.81671634253915
LANDSAT 9               
1 49260U 21088A   26117.93067706  .00000369  00000+0  91924-4 0  9991
2 49260  98.1870 188.9012 0001278 105.3003 254.8337 14.57121926243688
CSG-2                   
1 51444U 22008A   26117.99228694  .00000556  00000+0  76373-4 0  9991
2 51444  97.8887 302.3174 0001376  83.4624 276.6746 14.82152431229159
GAOFEN-12 03            
1 52912U 22069A   26117.95465828  .00000591  00000+0  84902-4 0  9993
2 52912  97.8342   7.0780 0001205  45.4780 314.6531 14.79950463207181
SWOT                    
1 54754U 22173A   26117.89884595  .00000057  00000+0  40168-4 0  9997
2 54754  77.6078 103.1946 0000778 149.1976 210.9221 14.00170766172116
GAOFEN-12 04            
1 57654U 23123A   26117.97768370  .00001136  00000+0  15660-3 0  9993
2 57654  97.9132  36.7182 0001289  90.6766 269.4593 14.80128726145200
PARS 1                  
1 59065U 24039Q   26117.99677550  .00013084  00000+0  28208-3 0  9996
2 59065  97.4798  97.3856 0007623 303.4666  56.5853 15.44683300120891
RESURS-P 4              
1 59371U 24061A   26117.96884942  .00003811  00000+0  12648-3 0  9991
2 59371  97.2717  66.7651 0002509  58.9547 301.1941 15.31833464116077
LEGION 1                
1 59625U 24081A   26117.95458709  .00005089  00000+0  26237-3 0  9990
2 59625  97.5026 196.3429 0009968 185.2746 174.8384 15.16772994109924
LEGION 2                
1 59626U 24081B   26117.92193922  .00004693  00000+0  24055-3 0  9997
2 59626  97.5025 196.4001 0011460 159.3801 200.7897 15.17002844109924
ALOS-4 (DAICHI-4)       
1 60182U 24123A   26117.83964986  .00001386  00000+0  19241-3 0  9996
2 60182  97.9208 215.7270 0001617  99.1644 260.9750 14.79472632 98434
LEGION 3                
1 60452U 24146A   26117.91422255  .00005217  00000+0  28291-3 0  9990
2 60452  45.0018 300.0988 0008919 237.7406 122.2608 15.15660610 94398
LEGION 4                
1 60453U 24146B   26117.91418342  .00005088  00000+0  28244-3 0  9997
2 60453  45.0029  31.9678 0010345  32.4776 327.6737 15.14863276 93242
SENTINEL-2C             
1 60989U 24157A   26117.82290890  .00000114  00000+0  59986-4 0  9992
2 60989  98.5630 193.3214 0001498 101.5739 258.5612 14.30816851 85780
IONOSFERA-M 1           
1 61735U 24199A   26117.91058315  .00000059  00000+0  46015-4 0  9999
2 61735  98.7243 351.5965 0000394  19.2945 340.8248 14.22744661120556
IONOSFERA-M 2           
1 61736U 24199B   26117.94499361  .00000075  00000+0  53064-4 0  9993
2 61736  98.7242 351.5417 0001947  95.5533 264.5867 14.22747536123683
BIOMASS                 
1 63772U 25090A   26117.78312803  .00000848  00000+0  15791-3 0  9995
2 63772  98.0749 305.8274 0001411  89.0330 271.1036 14.67539501 53293
GOSAT-GW (IBUKI GW)     
1 64694U 25141A   26117.94042744 -.00000552  00000+0 -88880-4 0  9992
2 64694  98.0556  56.0803 0001429  87.0498 273.0871 14.67554915 44472
IONOSFERA-M 3           
1 64876U 25155A   26117.91771551  .00000068  00000+0  50689-4 0  9997
2 64876  98.5992  81.0991 0001908  42.5071 317.6254 14.21477475 39260
IONOSFERA-M 4           
1 64877U 25155B   26117.95262980  .00000080  00000+0  56279-4 0  9998
2 64877  98.5991  81.0511 0001350  54.4575 305.6728 14.21479530 39267
MICROCARB               
1 64899U 25156A   26117.92587032  .00000642  00000+0  10936-3 0  9991
2 64899  97.9836 195.9601 0017708  74.7643 285.5520 14.72271506 40573
CO3D 3                  
1 64900U 25156B   26117.96484170  .00004472  00000+0  20960-3 0  9990
2 64900  97.4328 197.3795 0001106  48.8609 311.2722 15.20196849 41905
CO3D 4                  
1 64901U 25156C   26117.89917775  .00005545  00000+0  25897-3 0  9991
2 64901  97.4328 197.3147 0001972 102.0825 258.0631 15.20214429 41891
CO3D 2                  
1 64902U 25156D   26117.93164774  .00004574  00000+0  21423-3 0  9992
2 64902  97.4326 197.2456 0000560  65.2654 294.8640 15.20210616 41896
CO3D 1                  
1 64903U 25156E   26103.64843334  .00003151  00000+0  12932-3 0  9997
2 64903  98.0928 182.3847 0110033   5.8142 354.4339 15.19681462 39726
SENTINEL-6B             
1 66514U 25264A   26117.72686342 -.00000072  00000+0 -46821-4 0  9991
2 66514  66.0413 239.9835 0007938 269.7159  90.2946 12.80930806 20705
CSG-3                   
1 67304U 26001A   26117.97116855  .00000372  00000+0  53264-4 0  9993
2 67304  97.8885 302.2997 0001376  89.8601 270.2770 14.82173802 17029
